{
  "status": "success",
  "hasErrors": false,
  "message": "",
  "length": 155,
  "payload": [
    {
      "_index": "tle",
      "_type": "_doc",
      "_id": "rlaTtXYBAz3ao6c9cFHY",
      "_score": 9.726809,
      "_source": {
        "right_ascension": "223.8794",
        "anomaly": "018.4429",
        "calc_anomaly": 18.4429,
        "satellite_number": 10976,
        "calc_mean_motion": 2.22204034,
        "ephemeris": "0",
        "set_number": "094",
        "calc_ballistic_coefficient": 0.00000129,
        "epoch": "03005.60052537",
        "international_designator": "78068B",
        "calc_inclination": 21.1098,
        "perigee": "261.4398",
        "revolution_number": "1989",
        "line_number": 87529,
        "calc_perigee": 261.4398,
        "drag": "+19086-2",
        "text": "1 10976U 78068B   03005.60052537 +.00000129  00000-0  19086-2 0   942\n2 10976  21.1098 223.8794 7198136 261.4398  18.4429  2.22204034 19893",
        "calc_drag": 0.0019086,
        "timestamp": "2003-01-05 14:24:45",
        "inclination": "021.1098",
        "eccentricity": "7198136",
        "classification": "U",
        "calc_right_ascension": 223.8794,
        "calc_mean_motion_2": 0,
        "ballistic_coefficient": "+.00000129",
        "filename": "tle2004_3of8.txt",
        "calc_eccentricity": 0.7198136,
        "mean_motion": "02.22204034",
        "mean_motion_2": "+00000-0"
      }
    },
    {
      "_index": "tle",
      "_type": "_doc",
      "_id": "NFmqtXYBAz3ao6c97kIl",
      "_score": 9.726809,
      "_source": {
        "right_ascension": "021.3244",
        "anomaly": "018.9239",
        "calc_anomaly": 18.9239,
        "satellite_number": 10976,
        "calc_mean_motion": 2.22214714,
        "ephemeris": "0",
        "set_number": "0269",
        "calc_ballistic_coefficient": -1.8e-7,
        "epoch": "04225.63511045",
        "international_designator": "78068B",
        "calc_inclination": 22.1507,
        "perigee": "261.3218",
        "revolution_number": "21191",
        "line_number": 5959,
        "calc_perigee": 261.3218,
        "drag": "+19086-2",
        "text": "1 10976U 78068B   04225.63511045 -.00000018  00000-0  19086-2 0  2696\n2 10976  22.1507  21.3244 7179554 261.3218  18.9239  2.22214714211910",
        "calc_drag": 0.0019086,
        "timestamp": "2004-08-12 15:14:33",
        "inclination": "022.1507",
        "eccentricity": "7179554",
        "classification": "U",
        "calc_right_ascension": 21.3244,
        "calc_mean_motion_2": 0,
        "ballistic_coefficient": "-.00000018",
        "filename": "tle2004_7of8.txt",
        "calc_eccentricity": 0.7179554,
        "mean_motion": "02.22214714",
        "mean_motion_2": "+00000-0"
      }
    },
    {
      "_index": "tle",
      "_type": "_doc",
      "_id": "oVq6tXYBAz3ao6c9i-V1",
      "_score": 9.726809,
      "_source": {
        "right_ascension": "331.2450",
        "anomaly": "000.8486",
        "calc_anomaly": 0.8486,
        "satellite_number": 10976,
        "calc_mean_motion": 2.22225851,
        "ephemeris": "0",
        "set_number": "0343",
        "calc_ballistic_coefficient": -5.9e-7,
        "epoch": "05009.01692674",
        "international_designator": "78068B",
        "calc_inclination": 21.9873,
        "perigee": "350.7693",
        "revolution_number": "21523",
        "line_number": 188583,
        "calc_perigee": 350.7693,
        "drag": "+19086-2",
        "text": "1 10976U 78068B   05009.01692674 -.00000059  00000-0  19086-2 0  3435\n2 10976  21.9873 331.2450 7182385 350.7693   0.8486  2.22225851215238",
        "calc_drag": 0.0019086,
        "timestamp": "2005-01-09 00:24:22",
        "inclination": "021.9873",
        "eccentricity": "7182385",
        "classification": "U",
        "calc_right_ascension": 331.245,
        "calc_mean_motion_2": 0,
        "ballistic_coefficient": "-.00000059",
        "filename": "tle2005.txt",
        "calc_eccentricity": 0.7182385,
        "mean_motion": "02.22225851",
        "mean_motion_2": "+00000-0"
      }
    },
    {
      "_index": "tle",
      "_type": "_doc",
      "_id": "ku3StXYBwxzt-ZlwmKBr",
      "_score": 9.726809,
      "_source": {
        "right_ascension": "077.9268",
        "anomaly": "347.1093",
        "calc_anomaly": 347.1093,
        "satellite_number": 10976,
        "calc_mean_motion": 2.22227599,
        "ephemeris": "0",
        "set_number": "0790",
        "calc_ballistic_coefficient": -7.5e-7,
        "epoch": "07009.33479341",
        "international_designator": "78068B",
        "calc_inclination": 21.5941,
        "perigee": "080.6611",
        "revolution_number": "23147",
        "line_number": 204501,
        "calc_perigee": 80.6611,
        "drag": "+67294-3",
        "text": "1 10976U 78068B   07009.33479341 -.00000075  00000-0  67294-3 0  7905\n2 10976  21.5941  77.9268 7162777  80.6611 347.1093  2.22227599231479",
        "calc_drag": 0.00067294,
        "timestamp": "2007-01-09 08:02:06",
        "inclination": "021.5941",
        "eccentricity": "7162777",
        "classification": "U",
        "calc_right_ascension": 77.9268,
        "calc_mean_motion_2": 0,
        "ballistic_coefficient": "-.00000075",
        "filename": "tle2007.txt",
        "calc_eccentricity": 0.7162777,
        "mean_motion": "02.22227599",
        "mean_motion_2": "+00000-0"
      }
    },
    {
      "_index": "tle",
      "_type": "_doc",
      "_id": "yu_rtXYBwxzt-ZlwKo8H",
      "_score": 9.726809,
      "_source": {
        "right_ascension": "316.3258",
        "anomaly": "008.6251",
        "calc_anomaly": 8.6251,
        "satellite_number": 10976,
        "calc_mean_motion": 2.22240714,
        "ephemeris": "0",
        "set_number": "32",
        "calc_ballistic_coefficient": -0.00000248,
        "epoch": "08001.19856705",
        "international_designator": "78068B",
        "calc_inclination": 22.0452,
        "perigee": "297.3649",
        "revolution_number": "23940",
        "line_number": 34757,
        "calc_perigee": 297.3649,
        "drag": "00000+0",
        "text": "1 10976U 78068B   08001.19856705 -.00000248  00000-0  00000-0 0   325\n2 10976  22.0452 316.3258 7183911 297.3649   8.6251  2.22240714239402",
        "calc_drag": 0,
        "timestamp": "2008-01-01 04:45:56",
        "inclination": "022.0452",
        "eccentricity": "7183911",
        "classification": "U",
        "calc_right_ascension": 316.3258,
        "calc_mean_motion_2": 0,
        "ballistic_coefficient": "-.00000248",
        "filename": "tle2008.txt",
        "calc_eccentricity": 0.7183911,
        "mean_motion": "02.22240714",
        "mean_motion_2": "00000-0"
      }
    },
    {
      "_index": "tle",
      "_type": "_doc",
      "_id": "8u_utXYBwxzt-ZlwX91S",
      "_score": 9.726809,
      "_source": {
        "right_ascension": "315.1118",
        "anomaly": "008.2385",
        "calc_anomaly": 8.2385,
        "satellite_number": 10976,
        "calc_mean_motion": 2.22241183,
        "ephemeris": "0",
        "set_number": "0035",
        "calc_ballistic_coefficient": -0.00000169,
        "epoch": "08004.79781029",
        "international_designator": "78068B",
        "calc_inclination": 22.0395,
        "perigee": "299.5434",
        "revolution_number": "23948",
        "line_number": 121835,
        "calc_perigee": 299.5434,
        "drag": "+00000-0",
        "text": "1 10976U 78068B   08004.79781029 -.00000169  00000-0  00000-0 0   355\n2 10976  22.0395 315.1118 7183892 299.5434   8.2385  2.22241183239487",
        "calc_drag": 0,
        "timestamp": "2008-01-04 19:08:50",
        "inclination": "022.0395",
        "eccentricity": "7183892",
        "classification": "U",
        "calc_right_ascension": 315.1118,
        "calc_mean_motion_2": 0,
        "ballistic_coefficient": "-.00000169",
        "filename": "tle2008.txt",
        "calc_eccentricity": 0.7183892,
        "mean_motion": "02.22241183",
        "mean_motion_2": "+00000-0"
      }
    },
    {
      "_index": "tle",
      "_type": "_doc",
      "_id": "_PEAtnYBwxzt-ZlwOEm7",
      "_score": 9.726809,
      "_source": {
        "right_ascension": "060.3088",
        "anomaly": "356.3025",
        "calc_anomaly": 356.3025,
        "satellite_number": 10976,
        "calc_mean_motion": 2.22237157,
        "ephemeris": "0",
        "set_number": "0517",
        "calc_ballistic_coefficient": -0.00000219,
        "epoch": "10006.32915397",
        "international_designator": "78068B",
        "calc_inclination": 21.8365,
        "perigee": "031.7923",
        "revolution_number": "25577",
        "line_number": 177477,
        "calc_perigee": 31.7923,
        "drag": "+00000-0",
        "text": "1 10976U 78068B   10006.32915397 -.00000219  00000-0  00000-0 0  5177\n2 10976  21.8365  60.3088 7178374  31.7923 356.3025  2.22237157255778",
        "calc_drag": 0,
        "timestamp": "2010-01-06 07:53:58",
        "inclination": "021.8365",
        "eccentricity": "7178374",
        "classification": "U",
        "calc_right_ascension": 60.3088,
        "calc_mean_motion_2": 0,
        "ballistic_coefficient": "-.00000219",
        "filename": "tle2010.txt",
        "calc_eccentricity": 0.7178374,
        "mean_motion": "02.22237157",
        "mean_motion_2": "+00000-0"
      }
    }
  ]
}